{
"type": "FeatureCollection",
"name": "senderos_pangea",
"crs": { "type": "name", "properties": { "name": "urn:ogc:def:crs:OGC:1.3:CRS84" } },
"features": [
{"type":"Feature","properties":{"fid":1,"Nombre ":"sendero principal kamaria","Tipo":"sendero","Estado":"abierto","Ancho":3.0},"geometry":{"type":"LineString","coordinates":[[-74.726193901911557,5.924957945695828],[-74.726095869068587,5.924852371864938],[-74.725929967334324,5.924681945537928],[-74.725859082047876,5.924592961880462],[-74.725773114785582,5.924528109384343]]}},
{"type":"Feature","properties":{"fid":2,"Nombre ":"via pangea","Tipo":"via","Estado":"abierto","Ancho":6.0},"geometry":{"type":"LineString","coordinates":[[-74.72842009580819,5.923356428386153],[-74.72835976790482,5.92327196932144],[-74.728227046517418,5.923247838160093],[-74.728043046412154,5.923166395490549],[-74.727831898750367,5.923006526546628],[-74.727726324919473,5.922888887135064],[-74.727638849459595,5.922900952715737],[-74.727512160862531,5.922982395385281],[-74.727192422974682,5.92323577257942],[-74.726800291602785,5.923552494072093],[-74.726513734061797,5.923766658129043]]}},
{"type":"Feature","properties":{"fid":3,"Nombre ":"Sendero2","Tipo":"sendero","Estado":"abierto","Ancho":3.0},"geometry":{"type":"LineString","coordinates":[[-74.72654766850745,5.923807756513212],[-74.726540127519527,5.923917854936856],[-74.726515996358174,5.924059625509767],[-74.726496389789588,5.924096576350579],[-74.726387799563526,5.924087527165074],[-74.72626035686767,5.924073953386817],[-74.726176651901739,5.924081494374738],[-74.726131405974215,5.924113166524005],[-74.726138192863345,5.924167461637035],[-74.726095963330991,5.924203658379055],[-74.726044684613129,5.924228543639193],[-74.72599793048802,5.924255691195708],[-74.725986619006136,5.924301691222025],[-74.725965504239952,5.92436503552056],[-74.725952684560497,5.924420838831174],[-74.725915733719674,5.924490970018837],[-74.725888586163165,5.924527920859649],[-74.725840323840472,5.924543002835491],[-74.72577245494918,5.924527920859649]]}}
]
}
